{"type":"FeatureCollection","crs":{"type":"name","properties":{"name":"EPSG:4326"}},"features":[{"type":"Feature","id":1,"geometry":{"type":"Point","coordinates":[12.5124457721185,41.8970413662365]},"properties":{"FID":1,"ID":1,"LONGITUDE":12513170,"LATITUDE":41898200,"ID_VARCO":56,"LOCALIZZAZ":"Via Degli Equi","RIFERIMENT":"Via Tiburtina","FIELD_4":0,"FIELD_5":0,"FIELD_6":0,"FIELD_7":0,"FIELD_8":0,"FIELD_9":0,"GlobalID":"0ffa54a6-9044-407e-82d6-8cce7b23304b"}},{"type":"Feature","id":2,"geometry":{"type":"Point","coordinates":[12.5135923840308,41.8978849346504]},"properties":{"FID":2,"ID":2,"LONGITUDE":12514467,"LATITUDE":41898866,"ID_VARCO":55,"LOCALIZZAZ":"Via degli Umbri","RIFERIMENT":"Via Tiburtina","FIELD_4":0,"FIELD_5":0,"FIELD_6":0,"FIELD_7":0,"FIELD_8":0,"FIELD_9":0,"GlobalID":"56019d4e-a49b-4886-ab34-941d0d25c8fe"}},{"type":"Feature","id":3,"geometry":{"type":"Point","coordinates":[12.5150241766581,41.8986156249135]},"properties":{"FID":3,"ID":3,"LONGITUDE":12515800,"LATITUDE":41899586,"ID_VARCO":54,"LOCALIZZAZ":"Via dei Sardi","RIFERIMENT":"Via Tiburtina","FIELD_4":0,"FIELD_5":0,"FIELD_6":0,"FIELD_7":0,"FIELD_8":0,"FIELD_9":0,"GlobalID":"af913ccd-a481-43a9-a285-18596b21aeb4"}},{"type":"Feature","id":4,"geometry":{"type":"Point","coordinates":[12.5177175243407,41.8992359824147]},"properties":{"FID":4,"ID":4,"LONGITUDE":12518612,"LATITUDE":41900238,"ID_VARCO":53,"LOCALIZZAZ":"Via dei Volsci","RIFERIMENT":"Via dei Reti","FIELD_4":0,"FIELD_5":0,"FIELD_6":0,"FIELD_7":0,"FIELD_8":0,"FIELD_9":0,"GlobalID":"96d9e09f-fff5-4dce-a32d-f715645977ed"}},{"type":"Feature","id":5,"geometry":{"type":"Point","coordinates":[12.5188866001606,41.8979750390593]},"properties":{"FID":5,"ID":5,"LONGITUDE":12519744,"LATITUDE":41898988,"ID_VARCO":52,"LOCALIZZAZ":"Via dei Piceni","RIFERIMENT":"Via dei Reti","FIELD_4":0,"FIELD_5":0,"FIELD_6":0,"FIELD_7":0,"FIELD_8":0,"FIELD_9":0,"GlobalID":"2951b724-3770-496d-8dbd-5af3cb254bf1"}},{"type":"Feature","id":6,"geometry":{"type":"Point","coordinates":[12.5187321054746,41.8964817935214]},"properties":{"FID":6,"ID":6,"LONGITUDE":12519506,"LATITUDE":41897493,"ID_VARCO":51,"LOCALIZZAZ":"Via degli Ausoni","RIFERIMENT":"Viale Scalo di S. Lorenzo","FIELD_4":0,"FIELD_5":0,"FIELD_6":0,"FIELD_7":0,"FIELD_8":0,"FIELD_9":0,"GlobalID":"0ad48a26-32bf-4924-acd3-9e76707b3064"}},{"type":"Feature","id":7,"geometry":{"type":"Point","coordinates":[12.5155822601893,41.8929248787652]},"properties":{"FID":7,"ID":7,"LONGITUDE":12516494,"LATITUDE":41893919,"ID_VARCO":50,"LOCALIZZAZ":"Via di Porta Labicana","RIFERIMENT":"Viale Scalo di S. Lorenzo","FIELD_4":0,"FIELD_5":0,"FIELD_6":0,"FIELD_7":0,"FIELD_8":0,"FIELD_9":0,"GlobalID":"96cd4c84-f39a-4de4-87c2-0e6757dd7c64"}}]}