{"type":"FeatureCollection","crs":{"type":"name","properties":{"name":"EPSG:4326"}},"features":[{"type":"Feature","id":1,"geometry":{"type":"Point","coordinates":[12.466423198235,41.8876144602044]},"properties":{"FID":1,"ID":1,"LOCALIZZAZ":"Via Garibaldi","N_VARCO":30,"Accensione":"Notturna / diurna"}},{"type":"Feature","id":2,"geometry":{"type":"Point","coordinates":[12.4700739200138,41.891855765801]},"properties":{"FID":2,"ID":2,"LOCALIZZAZ":"Piazza Trilussa","N_VARCO":35,"Accensione":"Notturna / diurna"}},{"type":"Feature","id":3,"geometry":{"type":"Point","coordinates":[12.4717782184197,41.8907108002286]},"properties":{"FID":3,"ID":3,"LOCALIZZAZ":"Via Colomba Antonietti","N_VARCO":34,"Accensione":"Notturna / diurna"}},{"type":"Feature","id":4,"geometry":{"type":"Point","coordinates":[12.4727507770001,41.8878284225938]},"properties":{"FID":4,"ID":4,"LOCALIZZAZ":"Via Fratte di Trastevere","N_VARCO":33,"Accensione":"Notturna / diurna"}},{"type":"Feature","id":5,"geometry":{"type":"Point","coordinates":[12.4694651599807,41.8861066496126]},"properties":{"FID":5,"ID":5,"LOCALIZZAZ":"Via Roma Libera","N_VARCO":32,"Accensione":"Notturna / diurna"}},{"type":"Feature","id":6,"geometry":{"type":"Point","coordinates":[12.4733401676295,41.8877768089765]},"properties":{"FID":6,"ID":6,"LOCALIZZAZ":"Via Cardinal Marmaggi","N_VARCO":37,"Accensione":"Notturna / diurna"}},{"type":"Feature","id":7,"geometry":{"type":"Point","coordinates":[12.4772535446889,41.8892804596618]},"properties":{"FID":7,"ID":7,"LOCALIZZAZ":"Via della Lungarina","N_VARCO":39,"Accensione":"Notturna / diurna"}},{"type":"Feature","id":8,"geometry":{"type":"Point","coordinates":[12.4786562503436,41.8877898987034]},"properties":{"FID":8,"ID":8,"LOCALIZZAZ":"Via Ripense","N_VARCO":38,"Accensione":"Notturna / diurna"}},{"type":"Feature","id":9,"geometry":{"type":"Point","coordinates":[12.46928294825,41.8859192759857]},"properties":{"FID":9,"ID":9,"LOCALIZZAZ":"Via Morosini","N_VARCO":31,"Accensione":"Notturna / diurna"}},{"type":"Feature","id":10,"geometry":{"type":"Point","coordinates":[12.4656484492505,41.8953248330493]},"properties":{"FID":10,"ID":11,"LOCALIZZAZ":"Salita della Lungara","N_VARCO":36,"Accensione":"Notturna / diurna"}},{"type":"Feature","id":11,"geometry":{"type":"Point","coordinates":[12.477406008034,41.8861390915726]},"properties":{"FID":11,"ID":12,"LOCALIZZAZ":"Via del Porto","N_VARCO":40,"Accensione":"Notturna"}},{"type":"Feature","id":12,"geometry":{"type":"Point","coordinates":[12.4738834724937,41.8843004044839]},"properties":{"FID":12,"ID":13,"LOCALIZZAZ":"Via di San Michele","N_VARCO":41,"Accensione":"Notturna"}}]}