{"type":"FeatureCollection","crs":{"type":"name","properties":{"name":"EPSG:4326"}},"features":[{"type":"Feature","id":1,"geometry":{"type":"Polygon","coordinates":[[[12.48517365265,41.9083785876223],[12.4853700883411,41.9083648811967],[12.4854669250085,41.9083805118275],[12.4856606176119,41.9084117732664],[12.4858900198861,41.9084798395628],[12.4868469878993,41.9089134476088],[12.4871903109433,41.909050617897],[12.4878726999768,41.909338278404],[12.4879187436143,41.9092402237684],[12.4878668218416,41.9091040016343],[12.4871613716274,41.908570727698],[12.4868224598983,41.9082210889623],[12.4864792907654,41.9078263274886],[12.4861579053379,41.9073374824051],[12.4859486693218,41.9069861790425],[12.4857821112217,41.9065457534356],[12.4857558619799,41.9062164703343],[12.4857607770328,41.9061466310641],[12.4859697869161,41.9061932834214],[12.4863818810115,41.9062774311559],[12.4878347787712,41.9066942761497],[12.4881388226169,41.9060119961502],[12.4882002130321,41.9058628407972],[12.4891092155632,41.9063214165258],[12.48928683286,41.906019109151],[12.4893702419557,41.9058903514652],[12.4895686342035,41.9059036977029],[12.4897537468159,41.9059482730454],[12.4899463041815,41.9060335365945],[12.4901439938807,41.9060648778732],[12.4903530192692,41.9061144781361],[12.490547155233,41.9060827010883],[12.4907672899767,41.9058488639457],[12.4909187192228,41.9057531124617],[12.492055481105,41.9053546951007],[12.4922664322568,41.9052782541121],[12.4930730291314,41.9049986904802],[12.4931709571942,41.9048837557145],[12.4935338413589,41.9046215116138],[12.4939174445948,41.9043687245431],[12.4942838227059,41.9039399509448],[12.4945197930237,41.9040711811436],[12.4952647990393,41.9034228732304],[12.4953345760463,41.9033505004483],[12.4957025628411,41.9030343264503],[12.4958291259233,41.9027263915103],[12.4958721227905,41.9025517184741],[12.4960222846117,41.9024109039098],[12.4961324468302,41.9023682791669],[12.4963228520697,41.9023544222574],[12.4964007898916,41.9023651284263],[12.4965773490556,41.9022429004727],[12.4972702570989,41.9016321180697],[12.4974379572837,41.9015051926856],[12.4974689022348,41.9013302561554],[12.4967098155951,41.9008643523856],[12.4968606827514,41.9007766474946],[12.4977555142841,41.9002423121495],[12.4969901577413,41.8995456911551],[12.4968539269533,41.8993977722874],[12.4969576739581,41.899297323247],[12.4974768128954,41.8987367829512],[12.4973894721766,41.8986583295952],[12.4972617383558,41.8985339666268],[12.4969564881838,41.8982481315227],[12.4968223780693,41.8981326346986],[12.4962071185711,41.8976058860905],[12.4960852350557,41.8974861523221],[12.4960097654665,41.8974124598064],[12.4958150682496,41.8972280968584],[12.4950515317557,41.8964864718581],[12.4949788972192,41.8964173434109],[12.4933812012985,41.8948920088697],[12.4933057378197,41.8948183147126],[12.4931257621739,41.8946432767077],[12.4922159302794,41.894407257716],[12.4920995676418,41.8943776975533],[12.4910813591385,41.8941393031978],[12.4908961030208,41.8940992298238],[12.490947019023,41.8939623358722],[12.49143580155,41.8927489071296],[12.4913979788924,41.8927421329266],[12.4901892172503,41.8925086014669],[12.4900419795267,41.8923649619263],[12.4903125798055,41.8922363639772],[12.4907849017275,41.8914761342476],[12.4908684789087,41.8914194245277],[12.491007845789,41.8913999574252],[12.4919200878956,41.8912873224378],[12.4920076125855,41.8912744586838],[12.4922435817571,41.8913091705745],[12.4928917329763,41.8912294967386],[12.494241739498,41.8906105709982],[12.4942249099322,41.890578683478],[12.4932684998268,41.8908751592613],[12.4931737345918,41.8909358461318],[12.4928250024999,41.8910474687078],[12.491776518566,41.891216207351],[12.491642146855,41.8912132702759],[12.4907729773848,41.8913289600031],[12.4904660992881,41.8914476429395],[12.4903004746322,41.8915356412702],[12.487079992627,41.893362815967],[12.4849053378302,41.8945354495914],[12.4847677169745,41.8944333687291],[12.4857746541662,41.8938835722469],[12.486252437105,41.8936103594077],[12.4868414315758,41.8932990544669],[12.4868717046447,41.8932186660229],[12.4872366751799,41.8930240297749],[12.4873652481571,41.8930043307769],[12.48745814117,41.8929697295237],[12.4876592134399,41.8928846870059],[12.4903383132216,41.8912755244369],[12.4906784140246,41.8911699979039],[12.4909234998893,41.8911314254214],[12.4916244558428,41.8910337849337],[12.4917656466295,41.8910745259176],[12.4924762196018,41.8909457110978],[12.4927632645626,41.8909080515146],[12.4930436329369,41.8908263149715],[12.4936843149802,41.890551622436],[12.4938360531445,41.8903227311804],[12.4938766443201,41.8901613178387],[12.493851466244,41.8900346878365],[12.4936521277704,41.8895845509386],[12.4935300854928,41.8894693138189],[12.4933412863709,41.8893661269765],[12.4929090038059,41.8893251635829],[12.4922978667033,41.889311810308],[12.491590219564,41.8893008492902],[12.4913869161589,41.8892603800648],[12.4910801786143,41.8891681198493],[12.4907847661822,41.8890175692475],[12.4905966755228,41.8888963841506],[12.4903717402713,41.8887158513878],[12.4901740766985,41.8885314139853],[12.4901308603641,41.8884809373129],[12.4899133558395,41.8877821648487],[12.4891910278563,41.8852453342436],[12.4888242826733,41.8851472544509],[12.4846982894788,41.8874073843909],[12.4833936136252,41.8881757863288],[12.4835733678379,41.8883553397405],[12.4836337602826,41.8884287097953],[12.4836821131505,41.888501818018],[12.4838474164207,41.8894330293805],[12.4839843378304,41.8897827515974],[12.4841828846482,41.8900978018298],[12.484380368155,41.8903632969632],[12.4850353457799,41.891255710699],[12.4850459730747,41.8912919664714],[12.4850404899667,41.8913548863159],[12.4850178263107,41.8913949153381],[12.4849461121764,41.8914563836229],[12.4846077018607,41.8916335833972],[12.4838961730184,41.8920277446093],[12.4838379109843,41.8920534842797],[12.4837716794437,41.8920520320294],[12.4837187251399,41.8920193508803],[12.4834605036295,41.8918425798394],[12.4833912520059,41.891841064988],[12.4828445450766,41.8914913560288],[12.4825144275248,41.8913040022761],[12.4824077275691,41.8912061450198],[12.4819931977447,41.8910943141885],[12.481627330164,41.8910774062289],[12.4812526299463,41.891055671756],[12.4810464799905,41.8910022386703],[12.4809271163986,41.8909760251999],[12.4806457811374,41.8909301736367],[12.4803905397222,41.8909106664667],[12.4795136179356,41.8907134345178],[12.4794437331289,41.8907893792218],[12.4792442032352,41.8911848810287],[12.4792284773399,41.8912020297721],[12.4791964832401,41.8912075750044],[12.4791599661981,41.8912005247861],[12.4790042664078,41.8911458887846],[12.4789049429968,41.8912211649815],[12.4786823165842,41.8913639583033],[12.4787278300992,41.8914325011285],[12.4787726355116,41.8915190398001],[12.4786212219301,41.8919975185524],[12.4785934208864,41.8920914676596],[12.4785278946936,41.8923016620623],[12.4784910614744,41.8923954126755],[12.4784400584583,41.8925428861701],[12.4783532792723,41.8926040192419],[12.4776649036398,41.8928680674499],[12.4775579388531,41.8929062419478],[12.4774277307041,41.8928939941845],[12.4773237241165,41.8928501284101],[12.4773454805014,41.8924389681958],[12.4767024671517,41.8926576771222],[12.4768226591863,41.8928557439216],[12.4766731583454,41.8929543347895],[12.4761214225565,41.8931396979932],[12.4759639435429,41.8930406008747],[12.4759046484643,41.8929902297211],[12.4755981083671,41.8930659649847],[12.4755532104704,41.8930593520185],[12.475402828493,41.8928011174246],[12.4752293739812,41.8928601933405],[12.4750342628541,41.8929078832779],[12.4745811012797,41.8931099669437],[12.4744759499681,41.8930951797949],[12.4743712900873,41.8930679287265],[12.4742350715935,41.8929942448025],[12.4740628833065,41.8928449244199],[12.4739520076401,41.8928341679023],[12.4738254272108,41.8929394894734],[12.4737052244867,41.8930241607916],[12.4735155152787,41.8931779874667],[12.4734177255073,41.8931176216339],[12.4725969723794,41.8925054861422],[12.4718207246128,41.8930370345804],[12.4717138554613,41.8930869328018],[12.4716727569646,41.8930651268499],[12.4712925996759,41.8927745887993],[12.4704194440904,41.8935190950711],[12.4688661056587,41.8947771610913],[12.4687355667891,41.894877845008],[12.4685835989668,41.8949870639513],[12.4668732721468,41.8962506447338],[12.4665657741151,41.8964825072573],[12.4664625054529,41.8965792882829],[12.465850271447,41.8973537693171],[12.4657974723449,41.8974696795097],[12.4656378520501,41.8976957994588],[12.4655836414982,41.8977711483543],[12.4653735292822,41.8980546897275],[12.4652840642324,41.8981832961144],[12.464897488672,41.8987376121452],[12.4647167712545,41.8990398130217],[12.4646184443734,41.8991637202177],[12.4644581220962,41.8993312859275],[12.4644152398929,41.8994248981304],[12.4643921511799,41.8997035665325],[12.4650177145434,41.8997353969955],[12.4651409851165,41.8997426229949],[12.4652388110302,41.899741761909],[12.465276445797,41.8998987120215],[12.4655379957281,41.9001431399338],[12.4656509726631,41.9002582063148],[12.4657230447162,41.9003408492804],[12.4658237981941,41.9004601483769],[12.4663676004907,41.9011115606356],[12.4664217986686,41.9011127573045],[12.4666267253317,41.9011127789073],[12.466714044639,41.9011147066644],[12.4669396947391,41.9011241909011],[12.4676132721553,41.9011615722017],[12.4677333569967,41.9011732279668],[12.4684326099042,41.9012471938193],[12.4687857789232,41.9013090189432],[12.4691913762303,41.9013404793864],[12.4697689874809,41.9014423754345],[12.4705092894771,41.901621697928],[12.4713748478201,41.901910945495],[12.4714850136313,41.9019448929919],[12.4716100572601,41.9019836710495],[12.4719456899998,41.9021081399165],[12.4721807210754,41.9021853632216],[12.4730310531514,41.9025553141491],[12.4735647021921,41.9028552469492],[12.4740521247119,41.9031811767877],[12.474186557463,41.9032877014245],[12.4744995173977,41.9036052861737],[12.4747540264752,41.9039531036925],[12.4749513236346,41.9042996617037],[12.475202465448,41.9048095065719],[12.4752391212271,41.9049499035174],[12.4753418114157,41.9057851871357],[12.4753293927782,41.9061766614219],[12.4752627685017,41.9065669430338],[12.4750838242732,41.9072069124082],[12.4750320881628,41.9073723792178],[12.4751194142208,41.9074508491127],[12.4751274881681,41.9075971531828],[12.4750291600216,41.9078199750825],[12.4746856233066,41.9082745491382],[12.47416169777,41.9089683808328],[12.4739375285587,41.9092857236603],[12.4746427778168,41.9094486283462],[12.4754443437673,41.9095667483508],[12.47538321975,41.9097035724255],[12.4751128648857,41.9102919990206],[12.4750712249335,41.9104306708675],[12.4749545685452,41.9107043228519],[12.4747388467456,41.9112158567019],[12.4758676198989,41.9114838460972],[12.4759661109832,41.9115085268401],[12.4766227992673,41.9115950154925],[12.4768892293885,41.9116413998551],[12.4771190007617,41.9116799622445],[12.4773805727376,41.9118382100237],[12.4775172151745,41.9119208766688],[12.4779951596206,41.9121069933299],[12.4784624805572,41.9122568496185],[12.4806882171343,41.9128370726274],[12.4808088578801,41.9128352201264],[12.4809256019857,41.9127792483888],[12.4809496926985,41.912703226738],[12.4810067332675,41.9120937638237],[12.4812267068352,41.9111783432307],[12.4812787404571,41.9110509179936],[12.4815519236319,41.9104199958367],[12.4817306488969,41.9101672562113],[12.4822122946229,41.9098761333326],[12.4826172180598,41.9096851630895],[12.4832640271298,41.9093409216704],[12.4837257505588,41.9090632975927],[12.4842920531137,41.9087239956738],[12.4847963515836,41.9084693828144],[12.485048054205,41.908395278171],[12.48517365265,41.9083785876223]]]},"properties":{"FID":1,"Id":0,"aaa":" ","bbb":0,"GlobalID":"e91199ad-2454-403c-9eb5-455a67a36b51"}}]}