{"type":"FeatureCollection","crs":{"type":"name","properties":{"name":"EPSG:4326"}},"features":[{"type":"Feature","id":1,"geometry":{"type":"Point","coordinates":[12.4279592816592,41.924626813033]},"properties":{"FID":1,"id":9,"Nome":"9","Indirizzo":"via vittorio montiglio"}},{"type":"Feature","id":2,"geometry":{"type":"Point","coordinates":[12.4278921737593,41.9259655996535]},"properties":{"FID":2,"id":10,"Nome":"10","Indirizzo":"via giuseppe moscati"}},{"type":"Feature","id":3,"geometry":{"type":"Point","coordinates":[12.4352988675146,41.9355829319067]},"properties":{"FID":3,"id":11,"Nome":"11","Indirizzo":"via luigi morandi"}},{"type":"Feature","id":4,"geometry":{"type":"Point","coordinates":[12.4374506611729,41.9357216058193]},"properties":{"FID":4,"id":12,"Nome":"12","Indirizzo":"via nicola fornelli"}},{"type":"Feature","id":5,"geometry":{"type":"Point","coordinates":[12.4399397993138,41.933868500339]},"properties":{"FID":5,"id":13,"Nome":"13","Indirizzo":"via trionfale"}},{"type":"Feature","id":6,"geometry":{"type":"Point","coordinates":[12.4431031174232,41.934521073607]},"properties":{"FID":6,"id":14,"Nome":"14","Indirizzo":"via dei giornalisti"}},{"type":"Feature","id":7,"geometry":{"type":"Point","coordinates":[12.4502887900749,41.9436758255425]},"properties":{"FID":7,"id":15,"Nome":"15","Indirizzo":"via dei casali di santo spirito"}},{"type":"Feature","id":8,"geometry":{"type":"Point","coordinates":[12.4504732859946,41.9438846920739]},"properties":{"FID":8,"id":16,"Nome":"16","Indirizzo":"via dei colli della farnesina"}},{"type":"Feature","id":9,"geometry":{"type":"Point","coordinates":[12.4625458772343,41.9479609922693]},"properties":{"FID":9,"id":17,"Nome":"17","Indirizzo":"via nemea"}},{"type":"Feature","id":10,"geometry":{"type":"Point","coordinates":[12.4630582804815,41.9481187630416]},"properties":{"FID":10,"id":18,"Nome":"18","Indirizzo":"via di vigna stelluti"}},{"type":"Feature","id":11,"geometry":{"type":"Point","coordinates":[12.4630090330708,41.9483125125979]},"properties":{"FID":11,"id":19,"Nome":"19","Indirizzo":"via gerolamo belloni"}},{"type":"Feature","id":12,"geometry":{"type":"Point","coordinates":[12.4668424724062,41.9505162413653]},"properties":{"FID":12,"id":20,"Nome":"20","Indirizzo":"via vilfredo pareto"}},{"type":"Feature","id":13,"geometry":{"type":"Point","coordinates":[12.5645453466806,41.9193147321788]},"properties":{"FID":13,"id":77,"Nome":"77","Indirizzo":"ponte mammolo"}},{"type":"Feature","id":14,"geometry":{"type":"Point","coordinates":[12.4686439800298,41.950384123833]},"properties":{"FID":14,"id":21,"Nome":"21","Indirizzo":"via cassia nuova"}},{"type":"Feature","id":15,"geometry":{"type":"Point","coordinates":[12.468711238628,41.9509527493672]},"properties":{"FID":15,"id":22,"Nome":"22","Indirizzo":"via maffeo pantaleoni"}},{"type":"Feature","id":16,"geometry":{"type":"Point","coordinates":[12.4715744810478,41.9510245732431]},"properties":{"FID":16,"id":23,"Nome":"23","Indirizzo":"via flaminia nuova (laterale)"}},{"type":"Feature","id":17,"geometry":{"type":"Point","coordinates":[12.4717476250918,41.9509762664848]},"properties":{"FID":17,"id":24,"Nome":"24","Indirizzo":"via flaminia nuova"}},{"type":"Feature","id":18,"geometry":{"type":"Point","coordinates":[12.483453493979,41.9543007876601]},"properties":{"FID":18,"id":26,"Nome":"26","Indirizzo":"via capranica prenestina"}},{"type":"Feature","id":19,"geometry":{"type":"Point","coordinates":[12.4825988569029,41.9513476674583]},"properties":{"FID":19,"id":28,"Nome":"28","Indirizzo":"via flaminia"}},{"type":"Feature","id":20,"geometry":{"type":"Point","coordinates":[12.483157419898,41.9510527718437]},"properties":{"FID":20,"id":29,"Nome":"29","Indirizzo":"viale di tor di quinto"}},{"type":"Feature","id":21,"geometry":{"type":"Point","coordinates":[12.4847509280708,41.9513688070499]},"properties":{"FID":21,"id":30,"Nome":"30","Indirizzo":"viale di tor di quinto"}},{"type":"Feature","id":22,"geometry":{"type":"Point","coordinates":[12.4864062939625,41.9507039146367]},"properties":{"FID":22,"id":31,"Nome":"31","Indirizzo":"via della stazione di tor di quinto"}},{"type":"Feature","id":23,"geometry":{"type":"Point","coordinates":[12.5085711036684,41.9389472457396]},"properties":{"FID":23,"id":46,"Nome":"46","Indirizzo":"via del foro italico"}},{"type":"Feature","id":24,"geometry":{"type":"Point","coordinates":[12.5087025740098,41.9389004598333]},"properties":{"FID":24,"id":47,"Nome":"47","Indirizzo":"via salaria"}},{"type":"Feature","id":25,"geometry":{"type":"Point","coordinates":[12.5123270657474,41.9434045659064]},"properties":{"FID":25,"id":49,"Nome":"49","Indirizzo":"via val d'ala"}},{"type":"Feature","id":26,"geometry":{"type":"Point","coordinates":[12.5121615161136,41.9433016950669]},"properties":{"FID":26,"id":48,"Nome":"48","Indirizzo":"via val d'ala"}},{"type":"Feature","id":27,"geometry":{"type":"Point","coordinates":[12.5158977000881,41.9458845358228]},"properties":{"FID":27,"id":50,"Nome":"50","Indirizzo":"largo valtournanche"}},{"type":"Feature","id":28,"geometry":{"type":"Point","coordinates":[12.5211780574339,41.9460359703848]},"properties":{"FID":28,"id":51,"Nome":"51","Indirizzo":"via val maira"}},{"type":"Feature","id":29,"geometry":{"type":"Point","coordinates":[12.5232886576871,41.9459648950715]},"properties":{"FID":29,"id":52,"Nome":"52","Indirizzo":"via val di sangro"}},{"type":"Feature","id":30,"geometry":{"type":"Point","coordinates":[12.5247103738475,41.9459111872102]},"properties":{"FID":30,"id":53,"Nome":"53","Indirizzo":"via delle cave fiscali"}},{"type":"Feature","id":31,"geometry":{"type":"Point","coordinates":[12.5255356449982,41.9458917583332]},"properties":{"FID":31,"id":54,"Nome":"54","Indirizzo":"piazzale jonio"}},{"type":"Feature","id":32,"geometry":{"type":"Point","coordinates":[12.5297454655728,41.945616505216]},"properties":{"FID":32,"id":56,"Nome":"56","Indirizzo":"via pantelleria"}},{"type":"Feature","id":33,"geometry":{"type":"Point","coordinates":[12.529449802013,41.9456320938137]},"properties":{"FID":33,"id":55,"Nome":"55","Indirizzo":"via pantelleria"}},{"type":"Feature","id":34,"geometry":{"type":"Point","coordinates":[12.5331810721617,41.9451504497902]},"properties":{"FID":34,"id":57,"Nome":"57","Indirizzo":"via montecassino"}},{"type":"Feature","id":35,"geometry":{"type":"Point","coordinates":[12.5357687606754,41.943999787184]},"properties":{"FID":35,"id":58,"Nome":"58","Indirizzo":"via monte viglio"}},{"type":"Feature","id":36,"geometry":{"type":"Point","coordinates":[12.5363795437934,41.9438515713599]},"properties":{"FID":36,"id":59,"Nome":"59","Indirizzo":"via lampedusa"}},{"type":"Feature","id":37,"geometry":{"type":"Point","coordinates":[12.53744722764,41.9436660009065]},"properties":{"FID":37,"id":60,"Nome":"60","Indirizzo":"viale adriatico"}},{"type":"Feature","id":38,"geometry":{"type":"Point","coordinates":[12.5458331557929,41.9437166146819]},"properties":{"FID":38,"id":61,"Nome":"61","Indirizzo":"via alberto savinio"}},{"type":"Feature","id":39,"geometry":{"type":"Point","coordinates":[12.5474588009328,41.9433716234165]},"properties":{"FID":39,"id":62,"Nome":"62","Indirizzo":"via ettore romagnoli"}},{"type":"Feature","id":40,"geometry":{"type":"Point","coordinates":[12.548617051411,41.9437711636356]},"properties":{"FID":40,"id":63,"Nome":"63","Indirizzo":"via antonio fogazzaro"}},{"type":"Feature","id":41,"geometry":{"type":"Point","coordinates":[12.5508763056597,41.9441424436812]},"properties":{"FID":41,"id":64,"Nome":"64","Indirizzo":"via domenico comparetti"}},{"type":"Feature","id":42,"geometry":{"type":"Point","coordinates":[12.5524783757104,41.9443400772867]},"properties":{"FID":42,"id":65,"Nome":"65","Indirizzo":"via teofilo folengo"}},{"type":"Feature","id":43,"geometry":{"type":"Point","coordinates":[12.5522836317711,41.9410894149238]},"properties":{"FID":43,"id":66,"Nome":"66","Indirizzo":"via nomentana"}},{"type":"Feature","id":44,"geometry":{"type":"Point","coordinates":[12.5528570267895,41.9372246976879]},"properties":{"FID":44,"id":67,"Nome":"67","Indirizzo":"viale kant"}},{"type":"Feature","id":45,"geometry":{"type":"Point","coordinates":[12.5532706868751,41.9364913889126]},"properties":{"FID":45,"id":68,"Nome":"68","Indirizzo":"via giovanni zanardini"}},{"type":"Feature","id":46,"geometry":{"type":"Point","coordinates":[12.5611612933759,41.9310251376508]},"properties":{"FID":46,"id":69,"Nome":"69","Indirizzo":"via attilio benigni"}},{"type":"Feature","id":47,"geometry":{"type":"Point","coordinates":[12.5642290140851,41.9278884607272]},"properties":{"FID":47,"id":70,"Nome":"70","Indirizzo":"via furio cicogna"}},{"type":"Feature","id":48,"geometry":{"type":"Point","coordinates":[12.5673589387318,41.9281782444185]},"properties":{"FID":48,"id":71,"Nome":"71","Indirizzo":"via pietro ceccato"}},{"type":"Feature","id":49,"geometry":{"type":"Point","coordinates":[12.5690710495544,41.9277528686591]},"properties":{"FID":49,"id":72,"Nome":"72","Indirizzo":"via vittorio valletta"}},{"type":"Feature","id":50,"geometry":{"type":"Point","coordinates":[12.5696492339857,41.9243668646117]},"properties":{"FID":50,"id":73,"Nome":"73","Indirizzo":"via di rebibbia"}},{"type":"Feature","id":51,"geometry":{"type":"Point","coordinates":[12.5681545272116,41.9242982922094]},"properties":{"FID":51,"id":74,"Nome":"74","Indirizzo":"via tiburtina"}},{"type":"Feature","id":52,"geometry":{"type":"Point","coordinates":[12.5642883598943,41.9213520046528]},"properties":{"FID":52,"id":75,"Nome":"75","Indirizzo":"via cassino"}},{"type":"Feature","id":53,"geometry":{"type":"Point","coordinates":[12.5643197682746,41.9194787235734]},"properties":{"FID":53,"id":76,"Nome":"76","Indirizzo":"via tiburtina"}},{"type":"Feature","id":54,"geometry":{"type":"Point","coordinates":[12.567399852094,41.9186207388172]},"properties":{"FID":54,"id":78,"Nome":"78","Indirizzo":"via degli alberini"}},{"type":"Feature","id":55,"geometry":{"type":"Point","coordinates":[12.5679115418126,41.9176611031512]},"properties":{"FID":55,"id":79,"Nome":"79","Indirizzo":"via augusto mammuccari"}},{"type":"Feature","id":56,"geometry":{"type":"Point","coordinates":[12.5688091685318,41.9160767192083]},"properties":{"FID":56,"id":80,"Nome":"80","Indirizzo":"via luigi tamburrano"}},{"type":"Feature","id":57,"geometry":{"type":"Point","coordinates":[12.5737482761915,41.9035128462062]},"properties":{"FID":57,"id":86,"Nome":"86","Indirizzo":"via collatina vecchia"}},{"type":"Feature","id":58,"geometry":{"type":"Point","coordinates":[12.573635998562,41.9027931574808]},"properties":{"FID":58,"id":87,"Nome":"87","Indirizzo":"via collatina"}},{"type":"Feature","id":59,"geometry":{"type":"Point","coordinates":[12.5738492582191,41.9015209436722]},"properties":{"FID":59,"id":88,"Nome":"88","Indirizzo":"via giorgio perlasca"}},{"type":"Feature","id":60,"geometry":{"type":"Point","coordinates":[12.5743719747554,41.8988001912743]},"properties":{"FID":60,"id":89,"Nome":"89","Indirizzo":"viale palmiro togliatti"}},{"type":"Feature","id":61,"geometry":{"type":"Point","coordinates":[12.5744974629138,41.8950474862458]},"properties":{"FID":61,"id":90,"Nome":"90","Indirizzo":"via prenestina"}},{"type":"Feature","id":62,"geometry":{"type":"Point","coordinates":[12.5744653256941,41.8945801794906]},"properties":{"FID":62,"id":91,"Nome":"91","Indirizzo":"via prenestina (laterale)"}},{"type":"Feature","id":63,"geometry":{"type":"Point","coordinates":[12.5742508912968,41.8930491791571]},"properties":{"FID":63,"id":92,"Nome":"92","Indirizzo":"via delle abelie"}},{"type":"Feature","id":64,"geometry":{"type":"Point","coordinates":[12.57409856239,41.8917205380517]},"properties":{"FID":64,"id":93,"Nome":"93","Indirizzo":"via castore durante"}},{"type":"Feature","id":65,"geometry":{"type":"Point","coordinates":[12.5740346128535,41.8911284553698]},"properties":{"FID":65,"id":94,"Nome":"94","Indirizzo":"via delle palme"}},{"type":"Feature","id":66,"geometry":{"type":"Point","coordinates":[12.5737913952207,41.8901826118852]},"properties":{"FID":66,"id":95,"Nome":"95","Indirizzo":"via dei gelsi"}},{"type":"Feature","id":67,"geometry":{"type":"Point","coordinates":[12.5734192052761,41.8884323343853]},"properties":{"FID":67,"id":96,"Nome":"96","Indirizzo":"via giovanni battista de toni"}},{"type":"Feature","id":68,"geometry":{"type":"Point","coordinates":[12.5733962523341,41.8881613041499]},"properties":{"FID":68,"id":97,"Nome":"97","Indirizzo":"via degli olivi"}},{"type":"Feature","id":69,"geometry":{"type":"Point","coordinates":[12.5729881327248,41.8832381867735]},"properties":{"FID":69,"id":98,"Nome":"98","Indirizzo":"via dei sesami"}},{"type":"Feature","id":70,"geometry":{"type":"Point","coordinates":[12.5729807115484,41.882907915176]},"properties":{"FID":70,"id":99,"Nome":"99","Indirizzo":"via del ponticello"}},{"type":"Feature","id":71,"geometry":{"type":"Point","coordinates":[12.5729635527914,41.8823962468654]},"properties":{"FID":71,"id":100,"Nome":"100","Indirizzo":"via delle robinie"}},{"type":"Feature","id":72,"geometry":{"type":"Point","coordinates":[12.5728261678197,41.8808494965561]},"properties":{"FID":72,"id":101,"Nome":"101","Indirizzo":"via dei platani"}},{"type":"Feature","id":73,"geometry":{"type":"Point","coordinates":[12.5724299099286,41.8786841998034]},"properties":{"FID":73,"id":102,"Nome":"102","Indirizzo":"via dei pampini"}},{"type":"Feature","id":74,"geometry":{"type":"Point","coordinates":[12.5723290719386,41.8782774899182]},"properties":{"FID":74,"id":103,"Nome":"103","Indirizzo":"via dei pioppi"}},{"type":"Feature","id":75,"geometry":{"type":"Point","coordinates":[12.5709336081006,41.8761453416993]},"properties":{"FID":75,"id":104,"Nome":"104","Indirizzo":"via dei licheni"}},{"type":"Feature","id":76,"geometry":{"type":"Point","coordinates":[12.5702293521484,41.8751208527886]},"properties":{"FID":76,"id":105,"Nome":"105","Indirizzo":"via antonio sebastiani"}},{"type":"Feature","id":77,"geometry":{"type":"Point","coordinates":[12.5695376743733,41.8741155516569]},"properties":{"FID":77,"id":106,"Nome":"106","Indirizzo":"via casilina"}},{"type":"Feature","id":78,"geometry":{"type":"Point","coordinates":[12.5687504334772,41.8624351495278]},"properties":{"FID":78,"id":107,"Nome":"107","Indirizzo":"via santi romano"}},{"type":"Feature","id":79,"geometry":{"type":"Point","coordinates":[12.5696506914541,41.8606204484888]},"properties":{"FID":79,"id":108,"Nome":"108","Indirizzo":"via giuseppe salvioli"}},{"type":"Feature","id":80,"geometry":{"type":"Point","coordinates":[12.5702165337314,41.8590935439586]},"properties":{"FID":80,"id":109,"Nome":"109","Indirizzo":"via giuseppe chiovenda"}},{"type":"Feature","id":81,"geometry":{"type":"Point","coordinates":[12.5706474295961,41.857447122427]},"properties":{"FID":81,"id":110,"Nome":"110","Indirizzo":"via statilio ottato"}},{"type":"Feature","id":82,"geometry":{"type":"Point","coordinates":[12.5708452390443,41.8560812043526]},"properties":{"FID":82,"id":111,"Nome":"111","Indirizzo":"via quinto publicio"}},{"type":"Feature","id":83,"geometry":{"type":"Point","coordinates":[12.569616504162,41.852672124294]},"properties":{"FID":83,"id":112,"Nome":"112","Indirizzo":"piazza di cinecittà"}},{"type":"Feature","id":84,"geometry":{"type":"Point","coordinates":[12.5692128875102,41.8521969468048]},"properties":{"FID":84,"id":113,"Nome":"113","Indirizzo":"circonvallazione tuscolana"}},{"type":"Feature","id":85,"geometry":{"type":"Point","coordinates":[12.5659107676311,41.8289741343017]},"properties":{"FID":85,"id":114,"Nome":"114","Indirizzo":"via del calice"}},{"type":"Feature","id":86,"geometry":{"type":"Point","coordinates":[12.5612969721099,41.8250662064282]},"properties":{"FID":86,"id":115,"Nome":"115","Indirizzo":"via appia nuova"}},{"type":"Feature","id":87,"geometry":{"type":"Point","coordinates":[12.561614336139,41.8246609226989]},"properties":{"FID":87,"id":116,"Nome":"116","Indirizzo":"via casal rotondo"}},{"type":"Feature","id":88,"geometry":{"type":"Point","coordinates":[12.566453766293,41.8206880393091]},"properties":{"FID":88,"id":117,"Nome":"117","Indirizzo":"via del casale della sergetta"}},{"type":"Feature","id":89,"geometry":{"type":"Point","coordinates":[12.5362098532098,41.8025714927549]},"properties":{"FID":89,"id":118,"Nome":"118","Indirizzo":"via delle cornacchiole"}},{"type":"Feature","id":90,"geometry":{"type":"Point","coordinates":[12.5302200203984,41.8091890830024]},"properties":{"FID":90,"id":119,"Nome":"119","Indirizzo":"via di torricola"}},{"type":"Feature","id":91,"geometry":{"type":"Point","coordinates":[12.5199269055682,41.8270292377449]},"properties":{"FID":91,"id":120,"Nome":"120","Indirizzo":"via di tor carbone"}},{"type":"Feature","id":92,"geometry":{"type":"Point","coordinates":[12.5185630254953,41.8278014707434]},"properties":{"FID":92,"id":121,"Nome":"121","Indirizzo":"via ardeatina"}},{"type":"Feature","id":93,"geometry":{"type":"Point","coordinates":[12.4970249919944,41.8264576587548]},"properties":{"FID":93,"id":122,"Nome":"122","Indirizzo":"via di grotte d'arcaccio"}},{"type":"Feature","id":94,"geometry":{"type":"Point","coordinates":[12.4928365106142,41.826897410044]},"properties":{"FID":94,"id":123,"Nome":"123","Indirizzo":"via andrea di bonaiuto"}},{"type":"Feature","id":95,"geometry":{"type":"Point","coordinates":[12.4805669369766,41.8298017623636]},"properties":{"FID":95,"id":124,"Nome":"124","Indirizzo":"via del serafico"}},{"type":"Feature","id":96,"geometry":{"type":"Point","coordinates":[12.4810097495437,41.836616368964]},"properties":{"FID":96,"id":125,"Nome":"125","Indirizzo":"via di acque salvie"}},{"type":"Feature","id":97,"geometry":{"type":"Point","coordinates":[12.4809541142698,41.8372728944518]},"properties":{"FID":97,"id":126,"Nome":"126","Indirizzo":"viale del tintoretto"}},{"type":"Feature","id":98,"geometry":{"type":"Point","coordinates":[12.4792705074031,41.8377174515002]},"properties":{"FID":98,"id":127,"Nome":"127","Indirizzo":"viale del tintoretto"}},{"type":"Feature","id":99,"geometry":{"type":"Point","coordinates":[12.4806087666269,41.8375308951366]},"properties":{"FID":99,"id":128,"Nome":"128","Indirizzo":"viale del tintoretto"}},{"type":"Feature","id":100,"geometry":{"type":"Point","coordinates":[12.4809382330955,41.8409757817344]},"properties":{"FID":100,"id":129,"Nome":"129","Indirizzo":"piazzale roberto ardigò"}},{"type":"Feature","id":101,"geometry":{"type":"Point","coordinates":[12.4799715837725,41.8449680529411]},"properties":{"FID":101,"id":130,"Nome":"130","Indirizzo":"via luigi perna"}},{"type":"Feature","id":102,"geometry":{"type":"Point","coordinates":[12.4792419981243,41.8460491015516]},"properties":{"FID":102,"id":131,"Nome":"131","Indirizzo":"via cristoforo colombo (laterale)"}},{"type":"Feature","id":103,"geometry":{"type":"Point","coordinates":[12.4791673807146,41.8461740477059]},"properties":{"FID":103,"id":132,"Nome":"132","Indirizzo":"via cristoforo colombo"}},{"type":"Feature","id":104,"geometry":{"type":"Point","coordinates":[12.4779679209144,41.8456959623359]},"properties":{"FID":104,"id":133,"Nome":"133","Indirizzo":"piazza del lavoro"}},{"type":"Feature","id":105,"geometry":{"type":"Point","coordinates":[12.4779611600813,41.8447700058473]},"properties":{"FID":105,"id":134,"Nome":"134","Indirizzo":"piazza del lavoro"}},{"type":"Feature","id":106,"geometry":{"type":"Point","coordinates":[12.4683414705654,41.8429200615066]},"properties":{"FID":106,"id":135,"Nome":"135","Indirizzo":"via ostiense"}},{"type":"Feature","id":107,"geometry":{"type":"Point","coordinates":[12.467310899336,41.8432125460592]},"properties":{"FID":107,"id":168,"Nome":"168","Indirizzo":"via del mare"}},{"type":"Feature","id":108,"geometry":{"type":"Point","coordinates":[12.4549110727267,41.8421787426434]},"properties":{"FID":108,"id":137,"Nome":"137","Indirizzo":"via della magliana"}},{"type":"Feature","id":109,"geometry":{"type":"Point","coordinates":[12.443980549769,41.8458500348728]},"properties":{"FID":109,"id":138,"Nome":"138","Indirizzo":"vicolo di papa leone"}},{"type":"Feature","id":110,"geometry":{"type":"Point","coordinates":[12.4422339703795,41.8531083504536]},"properties":{"FID":110,"id":139,"Nome":"139","Indirizzo":"via portuense"}},{"type":"Feature","id":111,"geometry":{"type":"Point","coordinates":[12.4417162183112,41.853687537954]},"properties":{"FID":111,"id":140,"Nome":"140","Indirizzo":"via portuense"}},{"type":"Feature","id":112,"geometry":{"type":"Point","coordinates":[12.4418367311543,41.8581579094906]},"properties":{"FID":112,"id":141,"Nome":"141","Indirizzo":"via giuseppe tornielli"}},{"type":"Feature","id":113,"geometry":{"type":"Point","coordinates":[12.4430590977405,41.8593095169503]},"properties":{"FID":113,"id":142,"Nome":"142","Indirizzo":"viale dei colli portuensi"}},{"type":"Feature","id":114,"geometry":{"type":"Point","coordinates":[12.4431130735735,41.8594546781948]},"properties":{"FID":114,"id":143,"Nome":"143","Indirizzo":"viale dei colli portuensi"}},{"type":"Feature","id":115,"geometry":{"type":"Point","coordinates":[12.4431918079668,41.8596450678342]},"properties":{"FID":115,"id":144,"Nome":"144","Indirizzo":"piazzale eugenio morelli"}},{"type":"Feature","id":116,"geometry":{"type":"Point","coordinates":[12.4432436123954,41.8600373312175]},"properties":{"FID":116,"id":145,"Nome":"145","Indirizzo":"piazzale eugenio morelli"}},{"type":"Feature","id":117,"geometry":{"type":"Point","coordinates":[12.4441622960146,41.8666390604338]},"properties":{"FID":117,"id":146,"Nome":"146","Indirizzo":"largo alberto missiroli"}},{"type":"Feature","id":118,"geometry":{"type":"Point","coordinates":[12.443489503188,41.8698246904573]},"properties":{"FID":118,"id":147,"Nome":"147","Indirizzo":"via di monteverde"}},{"type":"Feature","id":119,"geometry":{"type":"Point","coordinates":[12.4435417426609,41.8723966091329]},"properties":{"FID":119,"id":148,"Nome":"148","Indirizzo":"via giovanni torrecremata"}},{"type":"Feature","id":120,"geometry":{"type":"Point","coordinates":[12.4433636901321,41.8752544927747]},"properties":{"FID":120,"id":149,"Nome":"149","Indirizzo":"via clelia garofolini"}},{"type":"Feature","id":121,"geometry":{"type":"Point","coordinates":[12.4429752972316,41.876950175238]},"properties":{"FID":121,"id":150,"Nome":"150","Indirizzo":"circonvallazione gianicolense"}},{"type":"Feature","id":122,"geometry":{"type":"Point","coordinates":[12.4425921181812,41.8775720128086]},"properties":{"FID":122,"id":151,"Nome":"151","Indirizzo":"via giulia di colloredo"}},{"type":"Feature","id":123,"geometry":{"type":"Point","coordinates":[12.442386245528,41.8779323407184]},"properties":{"FID":123,"id":152,"Nome":"152","Indirizzo":"via francesco maria galluzzi"}},{"type":"Feature","id":124,"geometry":{"type":"Point","coordinates":[12.4413039992554,41.8799135480091]},"properties":{"FID":124,"id":153,"Nome":"153","Indirizzo":"via vitellia"}},{"type":"Feature","id":125,"geometry":{"type":"Point","coordinates":[12.4429738341356,41.8891715375435]},"properties":{"FID":125,"id":154,"Nome":"154","Indirizzo":"via aurelia antica"}},{"type":"Feature","id":126,"geometry":{"type":"Point","coordinates":[12.4421527647946,41.8910172475228]},"properties":{"FID":126,"id":155,"Nome":"155","Indirizzo":"via nicolo piccolomini"}},{"type":"Feature","id":127,"geometry":{"type":"Point","coordinates":[12.4381125528482,41.892202884781]},"properties":{"FID":127,"id":156,"Nome":"156","Indirizzo":"via pio iv"}},{"type":"Feature","id":128,"geometry":{"type":"Point","coordinates":[12.4377481241487,41.8931751514556]},"properties":{"FID":128,"id":157,"Nome":"157","Indirizzo":"via ludovico micara"}},{"type":"Feature","id":129,"geometry":{"type":"Point","coordinates":[12.4387758154282,41.8946401554443]},"properties":{"FID":129,"id":158,"Nome":"158","Indirizzo":"via francesco satolli"}},{"type":"Feature","id":130,"geometry":{"type":"Point","coordinates":[12.4387371412683,41.8949635078207]},"properties":{"FID":130,"id":159,"Nome":"159","Indirizzo":"via gregorio vii"}},{"type":"Feature","id":131,"geometry":{"type":"Point","coordinates":[12.4382735475644,41.8954247455865]},"properties":{"FID":131,"id":160,"Nome":"160","Indirizzo":"via anastasio ii"}},{"type":"Feature","id":132,"geometry":{"type":"Point","coordinates":[12.4321714044423,41.8943163307332]},"properties":{"FID":132,"id":161,"Nome":"161","Indirizzo":"via carlo zucchi"}},{"type":"Feature","id":133,"geometry":{"type":"Point","coordinates":[12.4296024497934,41.8957505157619]},"properties":{"FID":133,"id":162,"Nome":"162","Indirizzo":"via della madonna del riposo"}},{"type":"Feature","id":134,"geometry":{"type":"Point","coordinates":[12.4292442256164,41.8958194339037]},"properties":{"FID":134,"id":163,"Nome":"163","Indirizzo":"via della madonna del riposo"}},{"type":"Feature","id":135,"geometry":{"type":"Point","coordinates":[12.4287652292388,41.896662520364]},"properties":{"FID":135,"id":164,"Nome":"164","Indirizzo":"via giuseppe palombini"}},{"type":"Feature","id":136,"geometry":{"type":"Point","coordinates":[12.4278875379513,41.8984162605658]},"properties":{"FID":136,"id":1,"Nome":"1","Indirizzo":"via aurelia"}},{"type":"Feature","id":137,"geometry":{"type":"Point","coordinates":[12.4272530094829,41.899532600037]},"properties":{"FID":137,"id":2,"Nome":"2","Indirizzo":"via accursio"}},{"type":"Feature","id":138,"geometry":{"type":"Point","coordinates":[12.4264561850736,41.9009667185423]},"properties":{"FID":138,"id":3,"Nome":"3","Indirizzo":"via taddeo da sessa"}},{"type":"Feature","id":139,"geometry":{"type":"Point","coordinates":[12.426117160635,41.9016317440727]},"properties":{"FID":139,"id":4,"Nome":"4","Indirizzo":"via di boccea"}},{"type":"Feature","id":140,"geometry":{"type":"Point","coordinates":[12.4260410755338,41.9017888871831]},"properties":{"FID":140,"id":5,"Nome":"5","Indirizzo":"via di boccea"}},{"type":"Feature","id":141,"geometry":{"type":"Point","coordinates":[12.4257149947205,41.9034954123305]},"properties":{"FID":141,"id":6,"Nome":"6","Indirizzo":"via nostra signora di lourdes"}},{"type":"Feature","id":142,"geometry":{"type":"Point","coordinates":[12.425402248752,41.9049937449979]},"properties":{"FID":142,"id":7,"Nome":"7","Indirizzo":"via francesco albergotti"}},{"type":"Feature","id":143,"geometry":{"type":"Point","coordinates":[12.4234889083828,41.9124142481166]},"properties":{"FID":143,"id":8,"Nome":"8","Indirizzo":"via gioacchino ventura"}},{"type":"Feature","id":144,"geometry":{"type":"Point","coordinates":[12.4792364153922,41.9551234539902]},"properties":{"FID":144,"id":25,"Nome":"25","Indirizzo":"via bomarzo"}},{"type":"Feature","id":145,"geometry":{"type":"Point","coordinates":[12.4864265400748,41.9509500785382]},"properties":{"FID":145,"id":32,"Nome":"32","Indirizzo":"via camposampietro"}},{"type":"Feature","id":146,"geometry":{"type":"Point","coordinates":[12.4846948179903,41.9517808337379]},"properties":{"FID":146,"id":27,"Nome":"27","Indirizzo":"via flaminia"}},{"type":"Feature","id":147,"geometry":{"type":"Point","coordinates":[12.4548565473089,41.8418796869392]},"properties":{"FID":147,"id":136,"Nome":"136","Indirizzo":"via della magliana"}},{"type":"Feature","id":148,"geometry":{"type":"Point","coordinates":[12.5693309894025,41.915199199036]},"properties":{"FID":148,"id":81,"Nome":"81","Indirizzo":"strada senza nome"}},{"type":"Feature","id":149,"geometry":{"type":"Point","coordinates":[12.5696954474402,41.9145809615962]},"properties":{"FID":149,"id":82,"Nome":"82","Indirizzo":"viale fernando santi"}},{"type":"Feature","id":150,"geometry":{"type":"Point","coordinates":[12.5698148592028,41.9143581033725]},"properties":{"FID":150,"id":83,"Nome":"83","Indirizzo":"viale fernando santi"}},{"type":"Feature","id":151,"geometry":{"type":"Point","coordinates":[12.5718791255719,41.9105294730273]},"properties":{"FID":151,"id":84,"Nome":"84","Indirizzo":"viale sacco e vanzetti"}},{"type":"Feature","id":152,"geometry":{"type":"Point","coordinates":[12.5725253160394,41.9081084062268]},"properties":{"FID":152,"id":85,"Nome":"85","Indirizzo":"strada dei parchi a24"}},{"type":"Feature","id":153,"geometry":{"type":"Point","coordinates":[12.4848170287408,41.9548016522263]},"properties":{"FID":153,"id":33,"Nome":"33","Indirizzo":"via cantalupo in sabina"}},{"type":"Feature","id":154,"geometry":{"type":"Point","coordinates":[12.4854556474272,41.957248032042]},"properties":{"FID":154,"id":34,"Nome":"34","Indirizzo":"via vitorchiano"}},{"type":"Feature","id":155,"geometry":{"type":"Point","coordinates":[12.4872904304602,41.9603969627613]},"properties":{"FID":155,"id":35,"Nome":"35","Indirizzo":"via roccalvecce"}},{"type":"Feature","id":156,"geometry":{"type":"Point","coordinates":[12.4911981313,41.9679407689593]},"properties":{"FID":156,"id":36,"Nome":"36","Indirizzo":"via della stazione di grottarossa"}},{"type":"Feature","id":157,"geometry":{"type":"Point","coordinates":[12.4939587177874,41.9754696797639]},"properties":{"FID":157,"id":37,"Nome":"37","Indirizzo":"via maurizio barendson"}},{"type":"Feature","id":158,"geometry":{"type":"Point","coordinates":[12.497486061652,41.9755125890458]},"properties":{"FID":158,"id":38,"Nome":"38","Indirizzo":"viale maurizio barendson"}},{"type":"Feature","id":159,"geometry":{"type":"Point","coordinates":[12.4950239964176,41.9860810091562]},"properties":{"FID":159,"id":39,"Nome":"39","Indirizzo":"via guido grandi"}},{"type":"Feature","id":160,"geometry":{"type":"Point","coordinates":[12.5042916865777,41.987862259892]},"properties":{"FID":160,"id":40,"Nome":"40","Indirizzo":"via di castel giubileo"}},{"type":"Feature","id":161,"geometry":{"type":"Point","coordinates":[12.5042253073085,41.9739227338066]},"properties":{"FID":161,"id":41,"Nome":"41","Indirizzo":"via castiglion fiorentino"}},{"type":"Feature","id":162,"geometry":{"type":"Point","coordinates":[12.5050582025735,41.9710429308428]},"properties":{"FID":162,"id":42,"Nome":"42","Indirizzo":"via sambuca pistoiese"}},{"type":"Feature","id":163,"geometry":{"type":"Point","coordinates":[12.506659447714,41.9472230030514]},"properties":{"FID":163,"id":43,"Nome":"43","Indirizzo":"via gaiole in chianti"}},{"type":"Feature","id":164,"geometry":{"type":"Point","coordinates":[12.5074036894471,41.9426300448352]},"properties":{"FID":164,"id":44,"Nome":"44","Indirizzo":"via marciana marina"}},{"type":"Feature","id":165,"geometry":{"type":"Point","coordinates":[12.5077834693114,41.9406477059402]},"properties":{"FID":165,"id":45,"Nome":"45","Indirizzo":"via torre salaria"}},{"type":"Feature","id":166,"geometry":{"type":"Point","coordinates":[12.4357373699067,41.9388536292727]},"properties":{"FID":166,"id":166,"Nome":"166","Indirizzo":"galleria giovanni xxiii - uscita passo del pardoi"}},{"type":"Feature","id":167,"geometry":{"type":"Point","coordinates":[12.4413863780062,41.9404531514465]},"properties":{"FID":167,"id":167,"Nome":"167","Indirizzo":"galleria giovanni xxiii - ingresso passo del pardoi"}},{"type":"Feature","id":168,"geometry":{"type":"Point","coordinates":[12.5726626797371,41.9076101028236]},"properties":{"FID":168,"id":169,"Nome":"169","Indirizzo":"autostrada a24 - uscita togliatti"}},{"type":"Feature","id":169,"geometry":{"type":"Point","coordinates":[12.4284501843265,41.8973107165614]},"properties":{"FID":169,"id":165,"Nome":"165","Indirizzo":"via dei carpegna"}}]}