{"type":"FeatureCollection","crs":{"type":"name","properties":{"name":"EPSG:4326"}},"features":[{"type":"Feature","id":1,"geometry":{"type":"Point","coordinates":[12.4791830469223,41.9046154853244]},"properties":{"FID":1,"ANGOLO":0,"AREA":0,"NOMEBLOCCO":" ","CURVATURA":0,"CENTRO":"2310916.9138,4642269.2378,0","CENTROIDE":"2310916.9138,4642269.2378,0","NOMECLASSE":" ","COLORE":256,"NOMECARTA":"Ambito Tridente_PROGETTO_PP09101_27.11.2014_A1.dwg","ANGOLOE":0,"GESTOREE":"331654","ELEVAZIONE":0,"LARGHEZZAE":0,"ALTEZZA":0,"NOMEIMMAGI":"Via di Ripetta","PTETICHETT":"2310916.9138,4642269.2378,0","LAYER":"Z_VARCHI ZTL A1_punto","LUNGHEZZA":0,"TIPODILINE":"ByLayer","SPESSOREDI":-1,"BLOCCOSTAT":0,"STILEDISTA":"DaColore","RAGGIO":0,"ROTAZIONE":0,"ANGOLOS":0,"NOMEFORMA":" ","DIMENSIONE":0,"STRINGA":" ","STILE":" ","LARGHEZZAS":0,"INDICATORE":" ","SPESSORE":0,"TRUECOLOR":"256","TIPO":"POINT","URL":" ","X1_Y1_Z1":"2310916.9138,4642269.2378,0","X1":2310916.91381,"Y1":4642269.23781,"Z1":0,"X2_Y2_Z2":" ","X2":0,"Y2":0,"Z2":0,"X3_Y3_Z3":" ","X3":0,"Y3":0,"Z3":0,"X4_Y4_Z4":" ","X4":0,"Y4":0,"Z4":0,"SCALAX":0,"SCALAY":0,"SCALAZ":0}},{"type":"Feature","id":2,"geometry":{"type":"Point","coordinates":[12.4805592954807,41.9028185903548]},"properties":{"FID":2,"ANGOLO":0,"AREA":0,"NOMEBLOCCO":" ","CURVATURA":0,"CENTRO":"2311025.2115,4642066.3529,0","CENTROIDE":"2311025.2115,4642066.3529,0","NOMECLASSE":" ","COLORE":256,"NOMECARTA":"Ambito Tridente_PROGETTO_PP09101_27.11.2014_A1.dwg","ANGOLOE":0,"GESTOREE":"331653","ELEVAZIONE":0,"LARGHEZZAE":0,"ALTEZZA":0,"NOMEIMMAGI":" ","PTETICHETT":"2311025.2115,4642066.3529,0","LAYER":"Z_VARCHI ZTL A1_punto","LUNGHEZZA":0,"TIPODILINE":"ByLayer","SPESSOREDI":-1,"BLOCCOSTAT":0,"STILEDISTA":"DaColore","RAGGIO":0,"ROTAZIONE":0,"ANGOLOS":0,"NOMEFORMA":" ","DIMENSIONE":0,"STRINGA":" ","STILE":" ","LARGHEZZAS":0,"INDICATORE":" ","SPESSORE":0,"TRUECOLOR":"256","TIPO":"POINT","URL":" ","X1_Y1_Z1":"2311025.2115,4642066.3529,0","X1":2311025.21146,"Y1":4642066.35286,"Z1":0,"X2_Y2_Z2":" ","X2":0,"Y2":0,"Z2":0,"X3_Y3_Z3":" ","X3":0,"Y3":0,"Z3":0,"X4_Y4_Z4":" ","X4":0,"Y4":0,"Z4":0,"SCALAX":0,"SCALAY":0,"SCALAZ":0}},{"type":"Feature","id":3,"geometry":{"type":"Point","coordinates":[12.4833699135162,41.90377893454]},"properties":{"FID":3,"ANGOLO":0,"AREA":0,"NOMEBLOCCO":" ","CURVATURA":0,"CENTRO":"2311261.4936,4642166.1417,0","CENTROIDE":"2311261.4936,4642166.1417,0","NOMECLASSE":" ","COLORE":256,"NOMECARTA":"Ambito Tridente_PROGETTO_PP09101_27.11.2014_A1.dwg","ANGOLOE":0,"GESTOREE":"331650","ELEVAZIONE":0,"LARGHEZZAE":0,"ALTEZZA":0,"NOMEIMMAGI":" ","PTETICHETT":"2311261.4936,4642166.1417,0","LAYER":"Z_VARCHI ZTL A1_punto","LUNGHEZZA":0,"TIPODILINE":"ByLayer","SPESSOREDI":-1,"BLOCCOSTAT":0,"STILEDISTA":"DaColore","RAGGIO":0,"ROTAZIONE":0,"ANGOLOS":0,"NOMEFORMA":" ","DIMENSIONE":0,"STRINGA":" ","STILE":" ","LARGHEZZAS":0,"INDICATORE":" ","SPESSORE":0,"TRUECOLOR":"256","TIPO":"POINT","URL":" ","X1_Y1_Z1":"2311261.4936,4642166.1417,0","X1":2311261.49363,"Y1":4642166.14172,"Z1":0,"X2_Y2_Z2":" ","X2":0,"Y2":0,"Z2":0,"X3_Y3_Z3":" ","X3":0,"Y3":0,"Z3":0,"X4_Y4_Z4":" ","X4":0,"Y4":0,"Z4":0,"SCALAX":0,"SCALAY":0,"SCALAZ":0}},{"type":"Feature","id":4,"geometry":{"type":"Point","coordinates":[12.4821164139186,41.908077583611]},"properties":{"FID":4,"ANGOLO":0,"AREA":0,"NOMEBLOCCO":" ","CURVATURA":0,"CENTRO":"2311171.5334,4642646.5208,0","CENTROIDE":"2311171.5334,4642646.5208,0","NOMECLASSE":" ","COLORE":256,"NOMECARTA":"Ambito Tridente_PROGETTO_PP09101_27.11.2014_A1.dwg","ANGOLOE":0,"GESTOREE":"33164F","ELEVAZIONE":0,"LARGHEZZAE":0,"ALTEZZA":0,"NOMEIMMAGI":" ","PTETICHETT":"2311171.5334,4642646.5208,0","LAYER":"Z_VARCHI ZTL A1_punto","LUNGHEZZA":0,"TIPODILINE":"ByLayer","SPESSOREDI":-1,"BLOCCOSTAT":0,"STILEDISTA":"DaColore","RAGGIO":0,"ROTAZIONE":0,"ANGOLOS":0,"NOMEFORMA":" ","DIMENSIONE":0,"STRINGA":" ","STILE":" ","LARGHEZZAS":0,"INDICATORE":" ","SPESSORE":0,"TRUECOLOR":"256","TIPO":"POINT","URL":" ","X1_Y1_Z1":"2311171.5334,4642646.5208,0","X1":2311171.53338,"Y1":4642646.52076,"Z1":0,"X2_Y2_Z2":" ","X2":0,"Y2":0,"Z2":0,"X3_Y3_Z3":" ","X3":0,"Y3":0,"Z3":0,"X4_Y4_Z4":" ","X4":0,"Y4":0,"Z4":0,"SCALAX":0,"SCALAY":0,"SCALAZ":0}},{"type":"Feature","id":5,"geometry":{"type":"Point","coordinates":[12.4762458082258,41.9097001259722]},"properties":{"FID":5,"ANGOLO":0,"AREA":0,"NOMEBLOCCO":" ","CURVATURA":0,"CENTRO":"2310689.8889,4642841.0102,0","CENTROIDE":"2310689.8889,4642841.0102,0","NOMECLASSE":" ","COLORE":256,"NOMECARTA":"Ambito Tridente_PROGETTO_PP09101_27.11.2014_A1.dwg","ANGOLOE":0,"GESTOREE":"33164E","ELEVAZIONE":0,"LARGHEZZAE":0,"ALTEZZA":0,"NOMEIMMAGI":" ","PTETICHETT":"2310689.8889,4642841.0102,0","LAYER":"Z_VARCHI ZTL A1_punto","LUNGHEZZA":0,"TIPODILINE":"ByLayer","SPESSOREDI":-1,"BLOCCOSTAT":0,"STILEDISTA":"DaColore","RAGGIO":0,"ROTAZIONE":0,"ANGOLOS":0,"NOMEFORMA":" ","DIMENSIONE":0,"STRINGA":" ","STILE":" ","LARGHEZZAS":0,"INDICATORE":" ","SPESSORE":0,"TRUECOLOR":"256","TIPO":"POINT","URL":" ","X1_Y1_Z1":"2310689.8889,4642841.0102,0","X1":2310689.8889,"Y1":4642841.01016,"Z1":0,"X2_Y2_Z2":" ","X2":0,"Y2":0,"Z2":0,"X3_Y3_Z3":" ","X3":0,"Y3":0,"Z3":0,"X4_Y4_Z4":" ","X4":0,"Y4":0,"Z4":0,"SCALAX":0,"SCALAY":0,"SCALAZ":0}},{"type":"Feature","id":6,"geometry":{"type":"Point","coordinates":[12.4779252130509,41.9064887602127]},"properties":{"FID":6,"ANGOLO":0,"AREA":0,"NOMEBLOCCO":" ","CURVATURA":0,"CENTRO":"2310818.6947,4642480.317,0","CENTROIDE":"2310818.6947,4642480.317,0","NOMECLASSE":" ","COLORE":256,"NOMECARTA":"Ambito Tridente_PROGETTO_PP09101_27.11.2014_A1.dwg","ANGOLOE":0,"GESTOREE":"331644","ELEVAZIONE":0,"LARGHEZZAE":0,"ALTEZZA":0,"NOMEIMMAGI":" ","PTETICHETT":"2310818.6947,4642480.317,0","LAYER":"Z_VARCHI ZTL A1_punto","LUNGHEZZA":0,"TIPODILINE":"ByLayer","SPESSOREDI":-1,"BLOCCOSTAT":0,"STILEDISTA":"DaColore","RAGGIO":0,"ROTAZIONE":0,"ANGOLOS":0,"NOMEFORMA":" ","DIMENSIONE":0,"STRINGA":" ","STILE":" ","LARGHEZZAS":0,"INDICATORE":" ","SPESSORE":0,"TRUECOLOR":"256","TIPO":"POINT","URL":" ","X1_Y1_Z1":"2310818.6947,4642480.317,0","X1":2310818.69471,"Y1":4642480.31698,"Z1":0,"X2_Y2_Z2":" ","X2":0,"Y2":0,"Z2":0,"X3_Y3_Z3":" ","X3":0,"Y3":0,"Z3":0,"X4_Y4_Z4":" ","X4":0,"Y4":0,"Z4":0,"SCALAX":0,"SCALAY":0,"SCALAZ":0}}]}