{"type":"FeatureCollection","crs":{"type":"name","properties":{"name":"EPSG:4326"}},"features":[{"type":"Feature","id":1,"geometry":{"type":"Polygon","coordinates":[[[12.493622,41.903906],[12.493837,41.903746],[12.494459,41.904082],[12.495747,41.903012],[12.495768,41.90258],[12.49594,41.902421],[12.496401,41.902389],[12.497485,41.901479],[12.497463,41.901383],[12.497324,41.901287],[12.496659,41.900904],[12.496734,41.900792],[12.49506,41.899674],[12.496347,41.898955],[12.495918,41.898492],[12.496133,41.898396],[12.49639,41.89862],[12.496691,41.898204],[12.493107,41.894691],[12.490854,41.894195],[12.488494,41.89362],[12.488236,41.893525],[12.488043,41.893732],[12.487571,41.894068],[12.486928,41.894962],[12.487099,41.89592],[12.487078,41.896863],[12.486842,41.898348],[12.486928,41.899003],[12.487206,41.899338],[12.487829,41.899802],[12.490747,41.901814],[12.493622,41.903906]]]},"properties":{"FID":1,"Name":"SETTORE F","descriptio":"MONTI\u003cbr\u003eZTL DIURNA","timestamp":" ","begin_":" ","end_":" ","altitudeMo":" ","tessellate":-1,"extrude":0,"visibility":-1,"drawOrder":0,"icon":" ","Shape__Area":1123290.5859375,"Shape__Length":4613.8914897539562}},{"type":"Feature","id":2,"geometry":{"type":"Polygon","coordinates":[[[12.48667,41.89493],[12.487464,41.893748],[12.487679,41.893732],[12.488,41.893477],[12.486949,41.893413],[12.486734,41.893253],[12.490554,41.891176],[12.492657,41.890889],[12.493515,41.89057],[12.493837,41.890234],[12.493558,41.889595],[12.493258,41.889419],[12.492185,41.889387],[12.49109,41.88934],[12.490189,41.888717],[12.489009,41.885234],[12.488923,41.885122],[12.488816,41.885218],[12.485812,41.886848],[12.483344,41.888205],[12.483709,41.888605],[12.483902,41.889787],[12.485082,41.891384],[12.483709,41.892119],[12.482421,41.891336],[12.48167,41.891113],[12.480576,41.891049],[12.479439,41.890809],[12.47843,41.891544],[12.477593,41.891831],[12.477078,41.891927],[12.475619,41.891863],[12.474675,41.891799],[12.474825,41.892359],[12.475598,41.893477],[12.476349,41.894379],[12.476381,41.894547],[12.476424,41.89493],[12.476435,41.895984],[12.477336,41.895872],[12.479042,41.89588],[12.481756,41.896527],[12.485018,41.897134],[12.485404,41.896032],[12.486241,41.896208],[12.486885,41.896096],[12.48667,41.89493]]]},"properties":{"FID":2,"Name":"SETTORE E","descriptio":"ZTL DIURNA","timestamp":" ","begin_":" ","end_":" ","altitudeMo":" ","tessellate":-1,"extrude":0,"visibility":-1,"drawOrder":0,"icon":" ","Shape__Area":1536730.095703125,"Shape__Length":7209.7711503562923}},{"type":"Feature","id":3,"geometry":{"type":"Polygon","coordinates":[[[12.464333,41.899442],[12.464311,41.899746],[12.465223,41.899802],[12.465867,41.899857],[12.468463,41.897941],[12.468892,41.897701],[12.469418,41.89755],[12.472132,41.896935],[12.473613,41.896511],[12.474482,41.89644],[12.474718,41.896416],[12.475888,41.896248],[12.476102,41.896152],[12.476285,41.896048],[12.476231,41.894499],[12.475888,41.894044],[12.475727,41.89394],[12.475598,41.893708],[12.474632,41.892398],[12.474471,41.891744],[12.473774,41.891744],[12.473409,41.891752],[12.473012,41.891847],[12.472218,41.892103],[12.471371,41.892694],[12.470309,41.893572],[12.468731,41.894842],[12.467476,41.895825],[12.4668,41.896256],[12.466274,41.896671],[12.465824,41.897182],[12.465792,41.897358],[12.465491,41.897789],[12.464515,41.899179],[12.464333,41.899442]]]},"properties":{"FID":3,"Name":"SETTORE D","descriptio":"ZTL DIURNA","timestamp":" ","begin_":" ","end_":" ","altitudeMo":" ","tessellate":-1,"extrude":0,"visibility":-1,"drawOrder":0,"icon":" ","Shape__Area":666359.443359375,"Shape__Length":3927.5458691123163}},{"type":"Feature","id":4,"geometry":{"type":"Polygon","coordinates":[[[12.479417,41.903698],[12.480855,41.90405],[12.483301,41.904609],[12.483752,41.904209],[12.484331,41.903762],[12.485662,41.903906],[12.485983,41.90472],[12.485898,41.906222],[12.488687,41.90694],[12.489009,41.906333],[12.489352,41.905886],[12.489824,41.906046],[12.490468,41.90611],[12.490897,41.905759],[12.492936,41.905088],[12.493901,41.904401],[12.492421,41.903347],[12.488236,41.900377],[12.486606,41.898923],[12.486777,41.896687],[12.486413,41.896432],[12.48564,41.896256],[12.485125,41.89739],[12.483194,41.896959],[12.482228,41.896767],[12.482057,41.897086],[12.479417,41.903698]]]},"properties":{"FID":4,"Name":"SETTORE C","descriptio":"ZTL DIURNA","timestamp":" ","begin_":" ","end_":" ","altitudeMo":" ","tessellate":-1,"extrude":0,"visibility":-1,"drawOrder":0,"icon":" ","Shape__Area":1237722.5986328125,"Shape__Length":5460.0529521671142}},{"type":"Feature","id":5,"geometry":{"type":"Polygon","coordinates":[[[12.46461,41.90037],[12.4651,41.90077],[12.46589,41.90106],[12.4678,41.90117],[12.47094,41.90179],[12.47289,41.90251],[12.47411,41.90328],[12.47484,41.90411],[12.475169,41.904832],[12.4787,41.9046],[12.47954,41.90253],[12.48117,41.89882],[12.4819,41.89678],[12.47913,41.89603],[12.47862,41.89606],[12.47727,41.89603],[12.47677,41.8962],[12.47531,41.89652],[12.47368,41.89665],[12.4695,41.89769],[12.46868,41.89798],[12.46604,41.90002],[12.46439,41.89991],[12.46461,41.90037]]]},"properties":{"FID":5,"Name":"SETTORE B","descriptio":"ZTL DIURNA","timestamp":" ","begin_":" ","end_":" ","altitudeMo":" ","tessellate":-1,"extrude":0,"visibility":-1,"drawOrder":0,"icon":" ","Shape__Area":1419887.5043945313,"Shape__Length":5275.498213657952}},{"type":"Feature","id":6,"geometry":{"type":"Polygon","coordinates":[[[12.474289,41.908769],[12.473924,41.909384],[12.475373,41.909615],[12.47504,41.910318],[12.474986,41.910445],[12.474643,41.911268],[12.476081,41.911635],[12.477068,41.911755],[12.477529,41.912042],[12.478409,41.91233],[12.47931,41.912553],[12.48063,41.912905],[12.480834,41.912881],[12.480962,41.912761],[12.480984,41.912162],[12.481252,41.911092],[12.481542,41.91039],[12.482153,41.909934],[12.482797,41.909639],[12.483312,41.909376],[12.484599,41.908593],[12.485157,41.908449],[12.485629,41.908473],[12.48638,41.908753],[12.486756,41.908984],[12.487818,41.909408],[12.487936,41.90924],[12.487528,41.908857],[12.486949,41.908409],[12.486445,41.907835],[12.486005,41.907204],[12.485747,41.906597],[12.485758,41.90615],[12.485758,41.904657],[12.485586,41.90409],[12.484406,41.903922],[12.483312,41.904808],[12.482851,41.904625],[12.481821,41.904393],[12.480941,41.904178],[12.479278,41.903786],[12.478913,41.904665],[12.477239,41.904832],[12.475147,41.904976],[12.475255,41.905838],[12.475147,41.906605],[12.474933,41.907411],[12.475072,41.907523],[12.474976,41.907811],[12.474289,41.908769]]]},"properties":{"FID":6,"Name":"SETTORE A","descriptio":"ZTL DIURNA","timestamp":" ","begin_":" ","end_":" ","altitudeMo":" ","tessellate":-1,"extrude":0,"visibility":-1,"drawOrder":0,"icon":" ","Shape__Area":1202939.1943359375,"Shape__Length":5307.2933279261624}},{"type":"Feature","id":7,"geometry":{"type":"Polygon","coordinates":[[[12.474225,41.888924],[12.474332,41.889691],[12.474782,41.889787],[12.474825,41.890138],[12.476542,41.889675],[12.478108,41.889036],[12.477636,41.888796],[12.477529,41.888525],[12.478023,41.888269],[12.478409,41.888669],[12.478666,41.887934],[12.47843,41.887263],[12.477551,41.886241],[12.475276,41.884196],[12.474568,41.883828],[12.473967,41.884308],[12.47371,41.884435],[12.473109,41.884308],[12.472401,41.884835],[12.472701,41.885154],[12.47298,41.88501],[12.473238,41.885314],[12.473173,41.885522],[12.472894,41.885586],[12.472272,41.886624],[12.473903,41.888493],[12.474225,41.888924]]]},"properties":{"FID":7,"Name":"SETTORE G","descriptio":"ZTL DIURNA","timestamp":" ","begin_":" ","end_":" ","altitudeMo":" ","tessellate":-1,"extrude":0,"visibility":-1,"drawOrder":0,"icon":" ","Shape__Area":394343.8681640625,"Shape__Length":2865.2796529931607}},{"type":"Feature","id":8,"geometry":{"type":"Polygon","coordinates":[[[12.470362,41.891592],[12.471671,41.890809],[12.471328,41.890554],[12.472293,41.890138],[12.472937,41.889963],[12.47298,41.889419],[12.472723,41.887726],[12.472379,41.887455],[12.471349,41.887518],[12.471907,41.886704],[12.471135,41.885889],[12.469375,41.886001],[12.468495,41.884915],[12.465298,41.88656],[12.466114,41.887534],[12.465878,41.887646],[12.465448,41.887598],[12.465427,41.887614],[12.466736,41.887998],[12.466822,41.888349],[12.464654,41.888812],[12.464354,41.889052],[12.463989,41.889052],[12.46341,41.88902],[12.462809,41.889659],[12.46208,41.890378],[12.460556,41.892071],[12.460299,41.892981],[12.460749,41.893684],[12.46062,41.894627],[12.460942,41.894738],[12.460771,41.895857],[12.461264,41.896064],[12.461286,41.896735],[12.461607,41.897342],[12.461436,41.897789],[12.461565,41.898141],[12.462873,41.898508],[12.464783,41.895936],[12.466865,41.894403],[12.470362,41.891592]]]},"properties":{"FID":8,"Name":"SETTORE G","descriptio":"ZTL DIURNA","timestamp":" ","begin_":" ","end_":" ","altitudeMo":" ","tessellate":-1,"extrude":0,"visibility":-1,"drawOrder":0,"icon":" ","Shape__Area":1372056.2221679688,"Shape__Length":5963.3326475238491}}]}